IRIDIUM 921             
1 24873U 97034E   24327.16323983  .00129914  00000+0  13947-2 0  9991
2 24873  86.3742 208.7894 0005558  56.7729 303.4070 15.63351918499622
IRIDIUM 26              
1 24903U 97043A   24328.41906835  .00000870  00000+0  28825-3 0  9998
2 24903  86.4001 196.9606 0002245  81.0219 279.1232 14.36807602427668
IRIDIUM 22              
1 24907U 97043E   24328.39036771  .00000724  00000+0  24425-3 0  9992
2 24907  86.4006 200.3318 0002028  83.7666 276.3762 14.35657697427237
DUMMY MASS 1            
1 24925U 97048A   24328.27217806  .00001040  00000+0  11411-3 0  9997
2 24925  86.3374 230.4452 0007932 139.7298 220.4515 14.86631772474778
DUMMY MASS 2            
1 24926U 97048B   24327.72891955  .00000945  00000+0  10397-3 0  9995
2 24926  86.3372 232.2659 0008210 152.6277 207.5381 14.86385208474235
IRIDIUM 29              
1 24944U 97051A   24327.78595394  .00000851  00000+0  28580-3 0  9992
2 24944  86.3986 230.3801 0002051  86.5300 273.6132 14.36117588423649
IRIDIUM 33              
1 24946U 97051C   24328.45509905  .00000671  00000+0  23020-3 0  9996
2 24946  86.3902 229.3472 0009338  40.6294 319.5597 14.34657023423252
IRIDIUM 28              
1 24948U 97051E   24327.82404887  .00000959  00000+0  31677-3 0  9997
2 24948  86.3994 227.9979 0002542  75.6619 284.4860 14.37066682424207
